STARLINK-35312          
1 65866U 25223N   26170.35345208  .00011883  00000+0  36225-3 0  9992
2 65866  53.1593 181.0495 0001161  80.3705 279.7429 15.34402046 39785
STARLINK-35456          
1 65867U 25223P   26170.29636837  .00014177  00000+0  48975-3 0  9991
2 65867  53.1598 182.1078 0001412  91.4551 268.6612 15.30207505 39769
STARLINK-35450          
1 65868U 25223Q   26170.34503505  .00019465  00000+0  58578-3 0  9998
2 65868  53.1588 180.9972 0001201  99.7782 260.3356 15.34397241 39788
STARLINK-35441          
1 65869U 25223R   26170.29673069  .00014750  00000+0  44674-3 0  9990
2 65869  53.1602 181.4079 0001354  86.8213 273.2945 15.34406794 39775
STARLINK-35433          
1 65870U 25223S   26170.29214784  .00012207  00000+0  42360-3 0  9992
2 65870  53.1600 182.0833 0001521  95.2197 264.8978 15.30200760 39774
STARLINK-35465          
1 65871U 25223T   26170.30481045  .00012699  00000+0  44002-3 0  9991
2 65871  53.1594 182.1605 0001164  95.9188 264.1945 15.30209649 39766
STARLINK-34108          
1 65872U 25223U   26170.35641195  .00010901  00000+0  37934-3 0  9991
2 65872  53.1588 181.7730 0000795  71.6940 288.4148 15.30225970 39770
STARLINK-35423          
1 65873U 25223V   26170.33030766  .00010503  00000+0  32160-3 0  9990
2 65873  53.1575 180.9018 0001136  96.4679 263.6453 15.34395964 39781
STARLINK-35425          
1 65874U 25223W   26170.30725427  .00012996  00000+0  39510-3 0  9997
2 65874  53.1588 181.4757 0001055  80.5391 279.5731 15.34398561 39777
STARLINK-34688          
1 65875U 25223X   26170.34924518  .00006916  00000+0  21570-3 0  9996
2 65875  53.1585 181.0194 0001245 108.5068 251.6070 15.34390594 39785
STARLINK-34438          
1 65876U 25223Y   26170.32829417  .00018358  00000+0  55332-3 0  9993
2 65876  53.1582 181.5986 0000989  75.7378 284.3734 15.34388322 39775
STARLINK-35462          
1 65877U 25223Z   26170.34796463  .00010881  00000+0  37905-3 0  9999
2 65877  53.1582 181.7166 0001165  83.5521 276.5612 15.30191723 39773
STARLINK-35453          
1 65878U 25223AA  26170.47111547  .00015415  00000+0  46623-3 0  9993
2 65878  53.1572 180.3592 0000572  79.7330 280.3737 15.34413583 39807
STARLINK-35418          
1 65879U 25223AB  26170.35555719  .00016870  00000+0  50928-3 0  9993
2 65879  53.1581 181.0612 0001083  81.3011 278.8114 15.34401633 39783
STARLINK-35445          
1 65880U 25223AC  26170.35134870  .00015556  00000+0  47059-3 0  9997
2 65880  53.1586 181.0334 0001155  97.3795 262.7338 15.34399215 39789
STARLINK-35464          
1 65881U 25223AD  26170.26938009  .00009626  00000+0  29581-3 0  9995
2 65881  53.1588 181.2308 0001569  84.7924 275.3258 15.34385635 39779
STARLINK-35270          
1 65882U 25224A   26170.55632531  .00022047  00000+0  66153-3 0  9998
2 65882  53.1578 256.5606 0001116  73.9604 286.1522 15.34410139 40447
STARLINK-35367          
1 65883U 25224B   26170.47857968  .00025192  00000+0  75525-3 0  9990
2 65883  53.1591 256.7839 0002955 148.9278 211.1900 15.34355003 40430
STARLINK-35384          
1 65884U 25224C   26170.51891635  .00021200  00000+0  72539-3 0  9993
2 65884  53.1592 258.4493 0000171  24.3566 335.7443 15.30220049 40412
STARLINK-35415          
1 65885U 25224D   26170.53738861  .00016817  00000+0  50793-3 0  9993
2 65885  53.1580 256.4421 0001380  99.1319 260.9840 15.34387842 40394
STARLINK-35413          
1 65886U 25224E   26170.53318101  .00009794  00000+0  30065-3 0  9991
2 65886  53.1598 256.4132 0001161 105.2731 254.8400 15.34396463 40390
STARLINK-35332          
1 65887U 25224F   26170.52476813  .00020816  00000+0  62515-3 0  9999
2 65887  53.1571 256.3603 0001282  85.5202 274.5947 15.34417251 40474
STARLINK-35362          
1 65888U 25224G   26170.52629901  .00013275  00000+0  45940-3 0  9992
2 65888  53.1607 258.5025 0002546  98.1627 261.9662 15.30207897 40419
STARLINK-35193          
1 65889U 25224H   26170.53579826  .00027483  00000+0  93548-3 0  9997
2 65889  53.1567 258.5465 0002223 105.2732 254.8515 15.30238400 40447
STARLINK-34542          
1 65890U 25224J   26170.53263140  .00025213  00000+0  86026-3 0  9990
2 65890  53.1587 258.5415 0001791 101.9390 258.1812 15.30209034 40468
STARLINK-34791          
1 65891U 25224K   26170.54212673  .00018709  00000+0  64230-3 0  9992
2 65891  53.1582 258.5895 0001259  89.1363 270.9782 15.30194321 40462
STARLINK-34853          
1 65892U 25224L   26170.55001209  .00027304  00000+0  81608-3 0  9994
2 65892  53.1575 256.5210 0001005  75.8677 284.2437 15.34408771 40425
STARLINK-34921          
1 65893U 25224M   26170.52946300  .00013565  00000+0  46917-3 0  9990
2 65893  53.1583 258.5069 0001352  99.1844 260.9310 15.30207977 40465
STARLINK-34672          
1 65894U 25224N   26170.52207787  .00022601  00000+0  77288-3 0  9996
2 65894  53.1590 258.4626 0000367   4.1593 355.9411 15.30199593 40465
STARLINK-34898          
1 65895U 25224P   26170.55421701  .00014127  00000+0  42832-3 0  9995
2 65895  53.1582 256.5413 0001501  63.2684 296.8472 15.34409193 40495
