OBJECT_NAME,OBJECT_ID,EPOCH,MEAN_MOTION,ECCENTRICITY,INCLINATION,RA_OF_ASC_NODE,ARG_OF_PERICENTER,MEAN_ANOMALY,EPHEMERIS_TYPE,CLASSIFICATION_TYPE,NORAD_CAT_ID,ELEMENT_SET_NO,REV_AT_EPOCH,BSTAR,MEAN_MOTION_DOT,MEAN_MOTION_DDOT
STARLINK-35312,2025-223N,2026-06-19T08:28:58.259712,15.34402046,.00011619,53.1593,181.0495,80.3705,279.7429,0,U,65866,999,3978,.36224694E-3,.11883E-3,0
STARLINK-35456,2025-223P,2026-06-19T07:06:46.227168,15.30207505,.0001412,53.1598,182.1078,91.4551,268.6612,0,U,65867,999,3976,.48975307E-3,.14177E-3,0
STARLINK-35450,2025-223Q,2026-06-19T08:16:51.028320,15.34397241,.0001201,53.1588,180.9972,99.7782,260.3356,0,U,65868,999,3978,.58577694E-3,.19465E-3,0
STARLINK-35441,2025-223R,2026-06-19T07:07:17.531616,15.34406794,.00013548,53.1602,181.4079,86.8213,273.2945,0,U,65869,999,3977,.44673692E-3,.1475E-3,0
STARLINK-35433,2025-223S,2026-06-19T07:00:41.573376,15.30200760,.00015219,53.1600,182.0833,95.2197,264.8978,0,U,65870,999,3977,.42359847E-3,.12207E-3,0
STARLINK-35465,2025-223T,2026-06-19T07:18:55.622880,15.30209649,.00011642,53.1594,182.1605,95.9188,264.1945,0,U,65871,999,3976,.44001756E-3,.12699E-3,0
STARLINK-34108,2025-223U,2026-06-19T08:33:13.992480,15.30225970,.00007955,53.1588,181.7730,71.6940,288.4148,0,U,65872,999,3977,.37933641E-3,.10901E-3,0
STARLINK-35423,2025-223V,2026-06-19T07:55:38.581824,15.34395964,.00011366,53.1575,180.9018,96.4679,263.6453,0,U,65873,999,3978,.32159751E-3,.10503E-3,0
STARLINK-35425,2025-223W,2026-06-19T07:22:26.768928,15.34398561,.00010553,53.1588,181.4757,80.5391,279.5731,0,U,65874,999,3977,.39510275E-3,.12996E-3,0
STARLINK-34688,2025-223X,2026-06-19T08:22:54.783552,15.34390594,.00012457,53.1585,181.0194,108.5068,251.6070,0,U,65875,999,3978,.21570193E-3,.6916E-4,0
STARLINK-34438,2025-223Y,2026-06-19T07:52:44.616288,15.34388322,.00009897,53.1582,181.5986,75.7378,284.3734,0,U,65876,999,3977,.55332101E-3,.18358E-3,0
STARLINK-35462,2025-223Z,2026-06-19T08:21:04.144032,15.30191723,.0001165,53.1582,181.7166,83.5521,276.5612,0,U,65877,999,3977,.37905357E-3,.10881E-3,0
STARLINK-35453,2025-223AA,2026-06-19T11:18:24.376608,15.34413583,.00005723,53.1572,180.3592,79.7330,280.3737,0,U,65878,999,3980,.46622854E-3,.15415E-3,0
STARLINK-35418,2025-223AB,2026-06-19T08:32:00.141216,15.34401633,.00010832,53.1581,181.0612,81.3011,278.8114,0,U,65879,999,3978,.50928346E-3,.1687E-3,0
STARLINK-35445,2025-223AC,2026-06-19T08:25:56.527680,15.34399215,.0001155,53.1586,181.0334,97.3795,262.7338,0,U,65880,999,3978,.47058903E-3,.15556E-3,0
STARLINK-35464,2025-223AD,2026-06-19T06:27:54.439776,15.34385635,.00015698,53.1588,181.2308,84.7924,275.3258,0,U,65881,999,3977,.29581074E-3,.9626E-4,0
STARLINK-35270,2025-224A,2026-06-19T13:21:06.506784,15.34410139,.00011164,53.1578,256.5606,73.9604,286.1522,0,U,65882,999,4044,.66152681E-3,.22047E-3,0
STARLINK-35367,2025-224B,2026-06-19T11:29:09.284352,15.34355003,.00029555,53.1591,256.7839,148.9278,211.1900,0,U,65883,999,4043,.75525022E-3,.25192E-3,0
STARLINK-35384,2025-224C,2026-06-19T12:27:14.372640,15.30220049,.00001713,53.1592,258.4493,24.3566,335.7443,0,U,65884,999,4041,.72539135E-3,.212E-3,0
STARLINK-35415,2025-224D,2026-06-19T12:53:50.375904,15.34387842,.00013802,53.1580,256.4421,99.1319,260.9840,0,U,65885,999,4039,.50793417E-3,.16817E-3,0
STARLINK-35413,2025-224E,2026-06-19T12:47:46.839264,15.34396463,.00011616,53.1598,256.4132,105.2731,254.8400,0,U,65886,999,4039,.3006469E-3,.9794E-4,0
STARLINK-35332,2025-224F,2026-06-19T12:35:39.966432,15.34417251,.00012825,53.1571,256.3603,85.5202,274.5947,0,U,65887,999,4047,.62515448E-3,.20816E-3,0
STARLINK-35362,2025-224G,2026-06-19T12:37:52.234464,15.30207897,.00025465,53.1607,258.5025,98.1627,261.9662,0,U,65888,999,4041,.45940411E-3,.13275E-3,0
STARLINK-35193,2025-224H,2026-06-19T12:51:32.969664,15.30238400,.00022238,53.1567,258.5465,105.2732,254.8515,0,U,65889,999,4044,.93547802E-3,.27483E-3,0
STARLINK-34542,2025-224J,2026-06-19T12:46:59.352960,15.30209034,.00017914,53.1587,258.5415,101.9390,258.1812,0,U,65890,999,4046,.86026356E-3,.25213E-3,0
STARLINK-34791,2025-224K,2026-06-19T13:00:39.749472,15.30194321,.00012594,53.1582,258.5895,89.1363,270.9782,0,U,65891,999,4046,.64230093E-3,.18709E-3,0
STARLINK-34853,2025-224L,2026-06-19T13:12:01.044576,15.34408771,.00010054,53.1575,256.5210,75.8677,284.2437,0,U,65892,999,4042,.81607823E-3,.27304E-3,0
STARLINK-34921,2025-224M,2026-06-19T12:42:25.603200,15.30207977,.00013527,53.1583,258.5069,99.1844,260.9310,0,U,65893,999,4046,.46917065E-3,.13565E-3,0
STARLINK-34672,2025-224N,2026-06-19T12:31:47.527968,15.30199593,.00003678,53.1590,258.4626,4.1593,355.9411,0,U,65894,999,4046,.77287574E-3,.22601E-3,0
STARLINK-34898,2025-224P,2026-06-19T13:18:04.349664,15.34409193,.00015015,53.1582,256.5413,63.2684,296.8472,0,U,65895,999,4049,.42832159E-3,.14127E-3,0
